{"type": "FeatureCollection", "features": [ {"type": "Feature", "properties": {"norad_id": 66052, "name": "HRC MONOBLOCK CAMERA", "group": "stations", "lat": 22.201143904454476, "lon": 97.60249450175259, "alt_km": 400.80939463878167, "timestamp": "2025-12-25T07:41:08.484414+00:00", "meta": {"OBJECT_NAME": "HRC MONOBLOCK CAMERA", "OBJECT_ID": "1998-067XR", "EPOCH": "2025-12-23T23:10:15.977280", "MEAN_MOTION": 15.54901889, "ECCENTRICITY": 0.0002152, "INCLINATION": 51.6306, "RA_OF_ASC_NODE": 85.5033, "ARG_OF_PERICENTER": 238.968, "MEAN_ANOMALY": 121.11, "EPHEMERIS_TYPE": 0, "CLASSIFICATION_TYPE": "U", "NORAD_CAT_ID": 66052, "ELEMENT_SET_NO": 999, "REV_AT_EPOCH": 1058, "BSTAR": 0.0005004, "MEAN_MOTION_DOT": 0.00033738, "MEAN_MOTION_DDOT": 0}, "tle": {"line1": "1 66052U 98067XR  25357.96546270  .00033738  00000+0  50040-3 0  9995", "line2": "2 66052  51.6306  85.5033 0002152 238.9680 121.1100 15.54901889 10582"}}, "geometry": {"type": "Point", "coordinates": [97.60249450175259, 22.201143904454476]}}, {"type": "Feature", "properties": {"norad_id": 66174, "name": "HTV-X1", "group": "stations", "lat": 42.442957104517795, "lon": 126.6023911521991, "alt_km": 412.63535147354196, "timestamp": "2025-12-25T07:41:08.484424+00:00", "meta": {"OBJECT_NAME": "HTV-X1", "OBJECT_ID": "2025-241A", "EPOCH": "2025-12-24T17:30:08.449344", "MEAN_MOTION": 15.49788781, "ECCENTRICITY": 0.00031932, "INCLINATION": 51.6317, "RA_OF_ASC_NODE": 83.1022, "ARG_OF_PERICENTER": 296.2044, "MEAN_ANOMALY": 63.8616, "EPHEMERIS_TYPE": 0, "CLASSIFICATION_TYPE": "U", "NORAD_CAT_ID": 66174, "ELEMENT_SET_NO": 999, "REV_AT_EPOCH": 51, "BSTAR": 0.00024880559, "MEAN_MOTION_DOT": 0.00013665, "MEAN_MOTION_DDOT": 0}, "tle": {"line1": "1 66174U 25241A   25358.72926446  .00013665  00000+0  24881-3 0  9997", "line2": "2 66174  51.6317  83.1022 0003193 296.2044  63.8616 15.49788781   512"}}, "geometry": {"type": "Point", "coordinates": [126.6023911521991, 42.442957104517795]}}, {"type": "Feature", "properties": {"norad_id": 66515, "name": "SZ-21 MODULE", "group": "stations", "lat": 0.6295709921848176, "lon": -60.022042979525224, "alt_km": 375.395079570133, "timestamp": "2025-12-25T07:41:08.484434+00:00", "meta": {"OBJECT_NAME": "SZ-21 MODULE", "OBJECT_ID": "2025-246C", "EPOCH": "2025-12-24T13:16:51.562848", "MEAN_MOTION": 15.63097156, "ECCENTRICITY": 0.00047243, "INCLINATION": 41.4769, "RA_OF_ASC_NODE": 303.9494, "ARG_OF_PERICENTER": 323.7646, "MEAN_ANOMALY": 36.2873, "EPHEMERIS_TYPE": 0, "CLASSIFICATION_TYPE": "U", "NORAD_CAT_ID": 66515, "ELEMENT_SET_NO": 999, "REV_AT_EPOCH": 629, "BSTAR": 0.00031177301, "MEAN_MOTION_DOT": 0.0002901, "MEAN_MOTION_DDOT": 0}, "tle": {"line1": "1 66515U 25246C   25358.55337457  .00029010  00000+0  31177-3 0  9997", "line2": "2 66515  41.4769 303.9494 0004724 323.7646  36.2873 15.63097156  6295"}}, "geometry": {"type": "Point", "coordinates": [-60.022042979525224, 0.6295709921848176]}}, {"type": "Feature", "properties": {"norad_id": 66645, "name": "SHENZHOU-22", "group": "stations", "lat": -35.123170858038456, "lon": -112.49818234757933, "alt_km": 396.6280696731501, "timestamp": "2025-12-25T07:41:08.484444+00:00", "meta": {"OBJECT_NAME": "SHENZHOU-22", "OBJECT_ID": "2025-272A", "EPOCH": "2025-12-24T21:11:11.048064", "MEAN_MOTION": 15.59651715, "ECCENTRICITY": 0.00082343, "INCLINATION": 41.4683, "RA_OF_ASC_NODE": 302.9604, "ARG_OF_PERICENTER": 137.936, "MEAN_ANOMALY": 222.2112, "EPHEMERIS_TYPE": 0, "CLASSIFICATION_TYPE": "U", "NORAD_CAT_ID": 66645, "ELEMENT_SET_NO": 999, "REV_AT_EPOCH": 26583, "BSTAR": 0.00020600017, "MEAN_MOTION_DOT": 0.00016629, "MEAN_MOTION_DDOT": 0}, "tle": {"line1": "1 66645U 25272A   25358.88276676  .00016629  00000+0  20600-3 0  9992", "line2": "2 66645  41.4683 302.9604 0008234 137.9360 222.2112 15.59651715265836"}}, "geometry": {"type": "Point", "coordinates": [-112.49818234757933, -35.123170858038456]}}, {"type": "Feature", "properties": {"norad_id": 66664, "name": "SOYUZ-MS 28", "group": "stations", "lat": 42.44295815295509, "lon": 126.60239336344607, "alt_km": 412.6353513763388, "timestamp": "2025-12-25T07:41:08.484454+00:00", "meta": {"OBJECT_NAME": "SOYUZ-MS 28", "OBJECT_ID": "2025-275A", "EPOCH": "2025-12-24T17:30:08.449344", "MEAN_MOTION": 15.49788781, "ECCENTRICITY": 0.00031932, "INCLINATION": 51.6317, "RA_OF_ASC_NODE": 83.1022, "ARG_OF_PERICENTER": 296.2044, "MEAN_ANOMALY": 63.8616, "EPHEMERIS_TYPE": 0, "CLASSIFICATION_TYPE": "U", "NORAD_CAT_ID": 66664, "ELEMENT_SET_NO": 999, "REV_AT_EPOCH": 128, "BSTAR": 0.00024880559, "MEAN_MOTION_DOT": 0.00013665, "MEAN_MOTION_DDOT": 0}, "tle": {"line1": "1 66664U 25275A   25358.72926446  .00013665  00000+0  24881-3 0  9998", "line2": "2 66664  51.6317  83.1022 0003193 296.2044  63.8616 15.49788781  1281"}}, "geometry": {"type": "Point", "coordinates": [126.60239336344607, 42.44295815295509]}}, {"type": "Feature", "properties": {"norad_id": 66906, "name": "1998-067XS", "group": "stations", "lat": 26.71617065463374, "lon": -123.50327044733866, "alt_km": 410.76691766362273, "timestamp": "2025-12-25T07:41:08.484464+00:00", "meta": {"OBJECT_NAME": "1998-067XS", "OBJECT_ID": "1998-067XS", "EPOCH": "2025-12-24T12:30:34.892352", "MEAN_MOTION": 15.51195693, "ECCENTRICITY": 0.00027903, "INCLINATION": 51.6318, "RA_OF_ASC_NODE": 83.9644, "ARG_OF_PERICENTER": 262.1551, "MEAN_ANOMALY": 97.9122, "EPHEMERIS_TYPE": 0, "CLASSIFICATION_TYPE": "U", "NORAD_CAT_ID": 66906, "ELEMENT_SET_NO": 999, "REV_AT_EPOCH": 344, "BSTAR": 0.00051725581, "MEAN_MOTION_DOT": 0.00030459, "MEAN_MOTION_DDOT": 0}, "tle": {"line1": "1 66906U 98067XS  25358.52123718  .00030459  00000+0  51726-3 0  9993", "line2": "2 66906  51.6318  83.9644 0002790 262.1551  97.9122 15.51195693  3443"}}, "geometry": {"type": "Point", "coordinates": [-123.50327044733866, 26.71617065463374]}}, {"type": "Feature", "properties": {"norad_id": 66907, "name": "1998-067XT", "group": "stations", "lat": -30.101994257029656, "lon": -72.81789269371099, "alt_km": 411.2706404136861, "timestamp": "2025-12-25T07:41:08.484474+00:00", "meta": {"OBJECT_NAME": "1998-067XT", "OBJECT_ID": "1998-067XT", "EPOCH": "2025-12-24T10:39:56.166048", "MEAN_MOTION": 15.52879993, "ECCENTRICITY": 0.00038856, "INCLINATION": 51.6313, "RA_OF_ASC_NODE": 84.2012, "ARG_OF_PERICENTER": 298.2919, "MEAN_ANOMALY": 61.7678, "EPHEMERIS_TYPE": 0, "CLASSIFICATION_TYPE": "U", "NORAD_CAT_ID": 66907, "ELEMENT_SET_NO": 999, "REV_AT_EPOCH": 343, "BSTAR": 0.0010726177, "MEAN_MOTION_DOT": 0.00067981, "MEAN_MOTION_DDOT": 0}, "tle": {"line1": "1 66907U 98067XT  25358.44440007  .00067981  00000+0  10726-2 0  9992", "line2": "2 66907  51.6313  84.2012 0003885 298.2919  61.7678 15.52879993  3433"}}, "geometry": {"type": "Point", "coordinates": [-72.81789269371099, -30.101994257029656]}}, {"type": "Feature", "properties": {"norad_id": 66908, "name": "1998-067XU", "group": "stations", "lat": -34.2772839681763, "lon": -67.49154703616503, "alt_km": 410.899365504195, "timestamp": "2025-12-25T07:41:08.484484+00:00", "meta": {"OBJECT_NAME": "1998-067XU", "OBJECT_ID": "1998-067XU", "EPOCH": "2025-12-24T10:38:25.805472", "MEAN_MOTION": 15.52977314, "ECCENTRICITY": 0.00038638, "INCLINATION": 51.6323, "RA_OF_ASC_NODE": 84.1936, "ARG_OF_PERICENTER": 296.7785, "MEAN_ANOMALY": 63.2809, "EPHEMERIS_TYPE": 0, "CLASSIFICATION_TYPE": "U", "NORAD_CAT_ID": 66908, "ELEMENT_SET_NO": 999, "REV_AT_EPOCH": 343, "BSTAR": 0.0010585814, "MEAN_MOTION_DOT": 0.00067317, "MEAN_MOTION_DDOT": 0}, "tle": {"line1": "1 66908U 98067XU  25358.44335423  .00067317  00000+0  10586-2 0  9995", "line2": "2 66908  51.6323  84.1936 0003863 296.7785  63.2809 15.52977314  3438"}}, "geometry": {"type": "Point", "coordinates": [-67.49154703616503, -34.2772839681763]}}, {"type": "Feature", "properties": {"norad_id": 66909, "name": "SILVERSAT", "group": "stations", "lat": -39.96871778474776, "lon": -58.58151941018579, "alt_km": 410.29385420919243, "timestamp": "2025-12-25T07:41:08.484493+00:00", "meta": {"OBJECT_NAME": "SILVERSAT", "OBJECT_ID": "1998-067XV", "EPOCH": "2025-12-24T12:08:54.950784", "MEAN_MOTION": 15.53202951, "ECCENTRICITY": 0.00038249, "INCLINATION": 51.631, "RA_OF_ASC_NODE": 83.8633, "ARG_OF_PERICENTER": 300.8028, "MEAN_ANOMALY": 59.2585, "EPHEMERIS_TYPE": 0, "CLASSIFICATION_TYPE": "U", "NORAD_CAT_ID": 66909, "ELEMENT_SET_NO": 999, "REV_AT_EPOCH": 344, "BSTAR": 0.0011617624, "MEAN_MOTION_DOT": 0.00074602, "MEAN_MOTION_DDOT": 0}, "tle": {"line1": "1 66909U 98067XV  25358.50619156  .00074602  00000+0  11618-2 0  9993", "line2": "2 66909  51.6310  83.8633 0003824 300.8028  59.2585 15.53202951  3445"}}, "geometry": {"type": "Point", "coordinates": [-58.58151941018579, -39.96871778474776]}}, {"type": "Feature", "properties": {"norad_id": 66910, "name": "1998-067XW", "group": "stations", "lat": -44.91348346552561, "lon": -48.03691046567329, "alt_km": 409.44316895817974, "timestamp": "2025-12-25T07:41:08.484503+00:00", "meta": {"OBJECT_NAME": "1998-067XW", "OBJECT_ID": "1998-067XW", "EPOCH": "2025-12-24T15:11:47.467392", "MEAN_MOTION": 15.53149596, "ECCENTRICITY": 0.00038741, "INCLINATION": 51.6312, "RA_OF_ASC_NODE": 83.2108, "ARG_OF_PERICENTER": 273.1727, "MEAN_ANOMALY": 86.882, "EPHEMERIS_TYPE": 0, "CLASSIFICATION_TYPE": "U", "NORAD_CAT_ID": 66910, "ELEMENT_SET_NO": 999, "REV_AT_EPOCH": 346, "BSTAR": 0.0010215807, "MEAN_MOTION_DOT": 0.00065339, "MEAN_MOTION_DDOT": 0}, "tle": {"line1": "1 66910U 98067XW  25358.63318828  .00065339  00000+0  10216-2 0  9991", "line2": "2 66910  51.6312  83.2108 0003874 273.1727  86.8820 15.53149596  3468"}}, "geometry": {"type": "Point", "coordinates": [-48.03691046567329, -44.91348346552561]}}]}